[{"OBJECT_NAME":"IRIDIUM 154","OBJECT_ID":"2018-061F","EPOCH":"2026-03-09T19:28:30.566496","MEAN_MOTION":14.34219109,"ECCENTRICITY":0.00022519,"INCLINATION":86.3916,"RA_OF_ASC_NODE":98.3738,"ARG_OF_PERICENTER":97.8524,"MEAN_ANOMALY":262.2928,"EPHEMERIS_TYPE":0,"CLASSIFICATION_TYPE":"U","NORAD_CAT_ID":43574,"ELEMENT_SET_NO":999,"REV_AT_EPOCH":39916,"BSTAR":1.1681552e-5,"MEAN_MOTION_DOT":5.3e-7,"MEAN_MOTION_DDOT":0},{"OBJECT_NAME":"SL-16 DEB","OBJECT_ID":"1992-093KZ","EPOCH":"2026-03-07T22:03:46.415808","MEAN_MOTION":14.4230749,"ECCENTRICITY":0.00567224,"INCLINATION":71.0343,"RA_OF_ASC_NODE":260.1544,"ARG_OF_PERICENTER":205.9076,"MEAN_ANOMALY":153.922,"EPHEMERIS_TYPE":0,"CLASSIFICATION_TYPE":"U","NORAD_CAT_ID":39847,"ELEMENT_SET_NO":999,"REV_AT_EPOCH":61703,"BSTAR":0.00065293301,"MEAN_MOTION_DOT":2.148e-5,"MEAN_MOTION_DDOT":0}]
